{"type": "FeatureCollection", "features": [ {"type": "Feature", "properties": {"norad_id": 34376, "name": "IRIDIUM 33 DEB", "group": "iridium-33-debris", "lat": -9.275862036481925, "lon": -179.08821363264158, "alt_km": 680.8295144558078, "timestamp": "2025-12-26T14:28:48.088164+00:00", "meta": {"OBJECT_NAME": "IRIDIUM 33 DEB", "OBJECT_ID": "1997-051FU", "EPOCH": "2025-12-26T00:29:09.701088", "MEAN_MOTION": 14.62749123, "ECCENTRICITY": 0.00285873, "INCLINATION": 86.2985, "RA_OF_ASC_NODE": 0.5681, "ARG_OF_PERICENTER": 123.3286, "MEAN_ANOMALY": 237.0669, "EPHEMERIS_TYPE": 0, "CLASSIFICATION_TYPE": "U", "NORAD_CAT_ID": 34376, "ELEMENT_SET_NO": 999, "REV_AT_EPOCH": 88201, "BSTAR": 0.0014873429, "MEAN_MOTION_DOT": 7.648e-05, "MEAN_MOTION_DDOT": 0}, "tle": {"line1": "1 34376U 97051FU  25360.02025117  .00007648  00000+0  14873-2 0  9998", "line2": "2 34376  86.2985   0.5681 0028587 123.3286 237.0669 14.62749123882019"}}, "geometry": {"type": "Point", "coordinates": [-179.08821363264158, -9.275862036481925]}}, {"type": "Feature", "properties": {"norad_id": 34486, "name": "IRIDIUM 33 DEB", "group": "iridium-33-debris", "lat": -85.90041937327973, "lon": -56.01868581728176, "alt_km": 594.5264255963675, "timestamp": "2025-12-26T14:28:48.088174+00:00", "meta": {"OBJECT_NAME": "IRIDIUM 33 DEB", "OBJECT_ID": "1997-051GB", "EPOCH": "2025-12-26T00:39:56.499264", "MEAN_MOTION": 14.96400313, "ECCENTRICITY": 0.00139183, "INCLINATION": 86.3935, "RA_OF_ASC_NODE": 5.8877, "ARG_OF_PERICENTER": 74.4824, "MEAN_ANOMALY": 338.8012, "EPHEMERIS_TYPE": 0, "CLASSIFICATION_TYPE": "U", "NORAD_CAT_ID": 34486, "ELEMENT_SET_NO": 999, "REV_AT_EPOCH": 89185, "BSTAR": 0.0021412617, "MEAN_MOTION_DOT": 0.00024383, "MEAN_MOTION_DDOT": 0}, "tle": {"line1": "1 34486U 97051GB  25360.02773726  .00024383  00000+0  21413-2 0  9999", "line2": "2 34486  86.3935   5.8877 0013918  74.4824 338.8012 14.96400313891854"}}, "geometry": {"type": "Point", "coordinates": [-56.01868581728176, -85.90041937327973]}}, {"type": "Feature", "properties": {"norad_id": 34487, "name": "IRIDIUM 33 DEB", "group": "iridium-33-debris", "lat": 7.258904713005257, "lon": -174.05900126304968, "alt_km": 748.7520516186478, "timestamp": "2025-12-26T14:28:48.088185+00:00", "meta": {"OBJECT_NAME": "IRIDIUM 33 DEB", "OBJECT_ID": "1997-051GC", "EPOCH": "2025-12-26T00:37:21.163296", "MEAN_MOTION": 14.43232747, "ECCENTRICITY": 0.00332617, "INCLINATION": 86.3429, "RA_OF_ASC_NODE": 6.6563, "ARG_OF_PERICENTER": 87.1121, "MEAN_ANOMALY": 327.0907, "EPHEMERIS_TYPE": 0, "CLASSIFICATION_TYPE": "U", "NORAD_CAT_ID": 34487, "ELEMENT_SET_NO": 999, "REV_AT_EPOCH": 88440, "BSTAR": 0.00018559814, "MEAN_MOTION_DOT": 6.49e-06, "MEAN_MOTION_DDOT": 0}, "tle": {"line1": "1 34487U 97051GC  25360.02593939  .00000649  00000+0  18560-3 0  9995", "line2": "2 34487  86.3429   6.6563 0033261  87.1121 327.0907 14.43232747884400"}}, "geometry": {"type": "Point", "coordinates": [-174.05900126304968, 7.258904713005257]}}, {"type": "Feature", "properties": {"norad_id": 34488, "name": "IRIDIUM 33 DEB", "group": "iridium-33-debris", "lat": -21.291146151284366, "lon": 120.36497671467791, "alt_km": 478.0386025412945, "timestamp": "2025-12-26T14:28:48.088196+00:00", "meta": {"OBJECT_NAME": "IRIDIUM 33 DEB", "OBJECT_ID": "1997-051GD", "EPOCH": "2025-12-25T20:22:16.973184", "MEAN_MOTION": 15.32823177, "ECCENTRICITY": 0.00085439, "INCLINATION": 86.325, "RA_OF_ASC_NODE": 299.3053, "ARG_OF_PERICENTER": 30.257, "MEAN_ANOMALY": 329.9171, "EPHEMERIS_TYPE": 0, "CLASSIFICATION_TYPE": "U", "NORAD_CAT_ID": 34488, "ELEMENT_SET_NO": 999, "REV_AT_EPOCH": 89440, "BSTAR": 0.0046585997, "MEAN_MOTION_DOT": 0.00150449, "MEAN_MOTION_DDOT": 0}, "tle": {"line1": "1 34488U 97051GD  25359.84880756  .00150449  00000+0  46586-2 0  9992", "line2": "2 34488  86.3250 299.3053 0008543  30.2570 329.9171 15.32823177894407"}}, "geometry": {"type": "Point", "coordinates": [120.36497671467791, -21.291146151284366]}}, {"type": "Feature", "properties": {"norad_id": 34492, "name": "IRIDIUM 33 DEB", "group": "iridium-33-debris", "lat": 65.7716239261314, "lon": 141.14702074580578, "alt_km": 771.110959111993, "timestamp": "2025-12-26T14:28:48.088206+00:00", "meta": {"OBJECT_NAME": "IRIDIUM 33 DEB", "OBJECT_ID": "1997-051GH", "EPOCH": "2025-12-24T21:39:21.521088", "MEAN_MOTION": 14.25932668, "ECCENTRICITY": 0.0188786, "INCLINATION": 86.473, "RA_OF_ASC_NODE": 329.7114, "ARG_OF_PERICENTER": 198.6425, "MEAN_ANOMALY": 190.963, "EPHEMERIS_TYPE": 0, "CLASSIFICATION_TYPE": "U", "NORAD_CAT_ID": 34492, "ELEMENT_SET_NO": 999, "REV_AT_EPOCH": 85232, "BSTAR": 0.0029502, "MEAN_MOTION_DOT": 8.501e-05, "MEAN_MOTION_DDOT": 0}, "tle": {"line1": "1 34492U 97051GH  25358.90233242  .00008501  00000+0  29502-2 0  9995", "line2": "2 34492  86.4730 329.7114 0188786 198.6425 190.9630 14.25932668852326"}}, "geometry": {"type": "Point", "coordinates": [141.14702074580578, 65.7716239261314]}}, {"type": "Feature", "properties": {"norad_id": 34497, "name": "IRIDIUM 33 DEB", "group": "iridium-33-debris", "lat": 75.46193853298278, "lon": 61.02070806153135, "alt_km": 836.8131408064737, "timestamp": "2025-12-26T14:28:48.088217+00:00", "meta": {"OBJECT_NAME": "IRIDIUM 33 DEB", "OBJECT_ID": "1997-051GN", "EPOCH": "2025-12-22T21:33:03.136608", "MEAN_MOTION": 14.27482363, "ECCENTRICITY": 0.00780484, "INCLINATION": 86.2769, "RA_OF_ASC_NODE": 48.0617, "ARG_OF_PERICENTER": 306.2683, "MEAN_ANOMALY": 179.2919, "EPHEMERIS_TYPE": 0, "CLASSIFICATION_TYPE": "U", "NORAD_CAT_ID": 34497, "ELEMENT_SET_NO": 999, "REV_AT_EPOCH": 87028, "BSTAR": 0.00056228088, "MEAN_MOTION_DOT": 1.443e-05, "MEAN_MOTION_DDOT": 0}, "tle": {"line1": "1 34497U 97051GN  25356.89795297  .00001443  00000+0  56228-3 0  9993", "line2": "2 34497  86.2769  48.0617 0078048 306.2683 179.2919 14.27482363870281"}}, "geometry": {"type": "Point", "coordinates": [61.02070806153135, 75.46193853298278]}}, {"type": "Feature", "properties": {"norad_id": 34508, "name": "IRIDIUM 33 DEB", "group": "iridium-33-debris", "lat": 60.90003950780577, "lon": 103.31501770204252, "alt_km": 738.9209678787638, "timestamp": "2025-12-26T14:28:48.088227+00:00", "meta": {"OBJECT_NAME": "IRIDIUM 33 DEB", "OBJECT_ID": "1997-051GZ", "EPOCH": "2025-12-26T05:50:57.403680", "MEAN_MOTION": 14.38526765, "ECCENTRICITY": 0.00666864, "INCLINATION": 86.3698, "RA_OF_ASC_NODE": 96.9181, "ARG_OF_PERICENTER": 129.6959, "MEAN_ANOMALY": 231.0146, "EPHEMERIS_TYPE": 0, "CLASSIFICATION_TYPE": "U", "NORAD_CAT_ID": 34508, "ELEMENT_SET_NO": 999, "REV_AT_EPOCH": 87503, "BSTAR": 0.001192249, "MEAN_MOTION_DOT": 3.759e-05, "MEAN_MOTION_DDOT": 0}, "tle": {"line1": "1 34508U 97051GZ  25360.24371995  .00003759  00000+0  11922-2 0  9998", "line2": "2 34508  86.3698  96.9181 0066686 129.6959 231.0146 14.38526765875036"}}, "geometry": {"type": "Point", "coordinates": [103.31501770204252, 60.90003950780577]}}, {"type": "Feature", "properties": {"norad_id": 34521, "name": "IRIDIUM 33 DEB", "group": "iridium-33-debris", "lat": 42.48691569765212, "lon": 27.76792163809285, "alt_km": 679.7299716088373, "timestamp": "2025-12-26T14:28:48.088237+00:00", "meta": {"OBJECT_NAME": "IRIDIUM 33 DEB", "OBJECT_ID": "1997-051HN", "EPOCH": "2025-12-26T07:43:19.130880", "MEAN_MOTION": 14.63478156, "ECCENTRICITY": 0.00033037, "INCLINATION": 86.3789, "RA_OF_ASC_NODE": 24.5668, "ARG_OF_PERICENTER": 163.2959, "MEAN_ANOMALY": 196.8363, "EPHEMERIS_TYPE": 0, "CLASSIFICATION_TYPE": "U", "NORAD_CAT_ID": 34521, "ELEMENT_SET_NO": 999, "REV_AT_EPOCH": 88671, "BSTAR": 0.00088506906, "MEAN_MOTION_DOT": 4.605e-05, "MEAN_MOTION_DDOT": 0}, "tle": {"line1": "1 34521U 97051HN  25360.32174920  .00004605  00000+0  88507-3 0  9996", "line2": "2 34521  86.3789  24.5668 0003303 163.2959 196.8363 14.63478156886714"}}, "geometry": {"type": "Point", "coordinates": [27.76792163809285, 42.48691569765212]}}, {"type": "Feature", "properties": {"norad_id": 34525, "name": "IRIDIUM 33 DEB", "group": "iridium-33-debris", "lat": -79.356998892194, "lon": 21.191209637386333, "alt_km": 759.7421241997781, "timestamp": "2025-12-26T14:28:48.088248+00:00", "meta": {"OBJECT_NAME": "IRIDIUM 33 DEB", "OBJECT_ID": "1997-051HS", "EPOCH": "2025-12-26T03:27:06.511104", "MEAN_MOTION": 14.42936205, "ECCENTRICITY": 0.00061755, "INCLINATION": 86.3716, "RA_OF_ASC_NODE": 41.1217, "ARG_OF_PERICENTER": 64.0766, "MEAN_ANOMALY": 350.5685, "EPHEMERIS_TYPE": 0, "CLASSIFICATION_TYPE": "U", "NORAD_CAT_ID": 34525, "ELEMENT_SET_NO": 999, "REV_AT_EPOCH": 88281, "BSTAR": 0.00033086279, "MEAN_MOTION_DOT": 1.126e-05, "MEAN_MOTION_DDOT": 0}, "tle": {"line1": "1 34525U 97051HS  25360.14382536  .00001126  00000+0  33086-3 0  9991", "line2": "2 34525  86.3716  41.1217 0006175  64.0766 350.5685 14.42936205882811"}}, "geometry": {"type": "Point", "coordinates": [21.191209637386333, -79.356998892194]}}, {"type": "Feature", "properties": {"norad_id": 34529, "name": "IRIDIUM 33 DEB", "group": "iridium-33-debris", "lat": 59.909267487045426, "lon": 35.80297202547326, "alt_km": 749.7214854933336, "timestamp": "2025-12-26T14:28:48.088258+00:00", "meta": {"OBJECT_NAME": "IRIDIUM 33 DEB", "OBJECT_ID": "1997-051HW", "EPOCH": "2025-12-25T13:11:48.680736", "MEAN_MOTION": 14.40626161, "ECCENTRICITY": 0.0006214, "INCLINATION": 86.3628, "RA_OF_ASC_NODE": 29.95, "ARG_OF_PERICENTER": 140.827, "MEAN_ANOMALY": 219.338, "EPHEMERIS_TYPE": 0, "CLASSIFICATION_TYPE": "U", "NORAD_CAT_ID": 34529, "ELEMENT_SET_NO": 999, "REV_AT_EPOCH": 88326, "BSTAR": 0.00012953, "MEAN_MOTION_DOT": 4.33e-06, "MEAN_MOTION_DDOT": 0}, "tle": {"line1": "1 34529U 97051HW  25359.54986899  .00000433  00000+0  12953-3 0  9999", "line2": "2 34529  86.3628  29.9500 0006214 140.8270 219.3380 14.40626161883262"}}, "geometry": {"type": "Point", "coordinates": [35.80297202547326, 59.909267487045426]}}]}